{
  "type": "FeatureCollection",
  "features": [
    {
      "type": "Feature",
      "geometry": {
        "type": "LineString",
        "coordinates": [
          [
            139.8057914272278,
            36.11300948034085
          ],
          [
            139.80636150645086,
            36.11201201879146
          ]
        ]
      },
      "properties": {
        "layer": "レイヤー 1 - テストデータ.geojson",
        "layerId": "1778806751752",
        "layerVisible": true,
        "id": 1,
        "name": "",
        "shape": "open",
        "diameter": "300×300",
        "memo": "",
        "flowReversed": false,
        "color": 4280391411,
        "strokeWidth": 7.5,
        "showArrow": false,
        "arrowSize": 12,
        "断面形状": null,
        "口径": null,
        "メモ": null
      }
    }
  ],
  "exported_at": "2026-05-15T09:59:24.099",
  "layers_count": 1,
  "gutters_count": 1
}