{
  "type": "FeatureCollection",
  "features": [
    {
      "type": "Feature",
      "geometry": {
        "type": "LineString",
        "coordinates": [
          [
            139.8057914272278,
            36.11300948034085
          ],
          [
            139.80636150645086,
            36.11201201879146
          ]
        ]
      },
      "properties": {
        "id": 1,
        "name": "",
        "layer": "共有データ 2026-05-15",
        "layerId": "1778830326027",
        "layerVisible": true,
        "shape": "開渠",
        "diameter": "400×400",
        "memo": "99",
        "flowReversed": false,
        "color": 4283215696,
        "strokeWidth": 7.5,
        "showArrow": true,
        "arrowSize": 12,
        "断面形状": null,
        "口径": null,
        "メモ": null
      }
    }
  ],
  "exported_at": "2026-05-15T17:07:16.976",
  "layers_count": 1,
  "gutters_count": 1
}