{
  "type": "FeatureCollection",
  "features": [
    {
      "type": "Feature",
      "geometry": {
        "type": "LineString",
        "coordinates": [
          [
            139.80636150645086,
            36.11201201879146
          ],
          [
            139.8057914272278,
            36.11300948034085
          ]
        ]
      },
      "properties": {
        "layer": "レイヤー 1 - テストデータ.geojson",
        "layerId": "1778811337223",
        "layerVisible": true,
        "id": 1,
        "name": "namae",
        "shape": "open",
        "diameter": "500×600",
        "memo": "mamomomomomomo",
        "flowReversed": false,
        "color": 4288423856,
        "strokeWidth": 7.5,
        "showArrow": true,
        "arrowSize": 12,
        "断面形状": null,
        "口径": null,
        "メモ": null
      }
    }
  ],
  "exported_at": "2026-05-15T11:24:57.620",
  "layers_count": 1,
  "gutters_count": 1
}