{"type":"FeatureCollection","features":[{"type":"Feature","geometry":{"type":"LineString","coordinates":[[139.805791,36.113009],[139.806362,36.112012]]},"properties":{"id":1,"name":"","断面形状":null,"口径":null,"メモ":null,"layer":"レイヤー 1 - テストデータ.geojson","layerId":"1779087380345","layerVisible":true,"shape":"---","diameter":"300","memo":"","flowReversed":false,"color":4280391411,"strokeWidth":7.5,"showArrow":true,"arrowSize":12,"showHeadMark":true,"headMarkSize":10}}],"exported_at":"2026-05-18T15:57:49.533","layers_count":1,"gutters_count":1}